OBJECT_NAME,OBJECT_ID,EPOCH,MEAN_MOTION,ECCENTRICITY,INCLINATION,RA_OF_ASC_NODE,ARG_OF_PERICENTER,MEAN_ANOMALY,EPHEMERIS_TYPE,CLASSIFICATION_TYPE,NORAD_CAT_ID,ELEMENT_SET_NO,REV_AT_EPOCH,BSTAR,MEAN_MOTION_DOT,MEAN_MOTION_DDOT
STARLINK-30525,2023-153X,2026-06-07T15:08:07.562976,15.27565855,0.00010829000000000001,43.0055,278.9346,278.4722,81.6007,0,U,58012,999,14865,-6.2160444e-05,-1.9710000000000003e-05,0.0
THEOS-2 (T2V),2023-155A,2026-06-08T04:46:29.555616,14.81725848,0.00014638,97.8877,230.3157,89.6687,270.4693,0,U,58016,999,14409,0.0001195523,8.9e-06,0.0
FORMOSAT-7R (TRITON),2023-155B,2026-06-08T04:19:16.490208,14.9109137,0.00026069,97.8353,240.6367,101.5376,258.6135,0,U,58017,999,14488,0.00018655739,1.792e-05,0.0
ANSER FOLLOWER 2,2023-155C,2026-06-08T04:25:20.984160,15.4620508,0.00013015,97.5533,247.9206,166.0409,194.0876,0,U,58018,999,14756,0.00040161446999999997,0.00019659,0.0
ANSER FOLLOWER 1,2023-155D,2026-06-08T05:56:13.849728,15.461604,0.00016406,97.5533,248.6235,125.2248,234.9155,0,U,58019,999,14757,0.0008800764099999999,0.00043255,0.0
NESS,2023-155E,2026-06-08T05:49:35.054112,15.2988882,0.00053836,97.5905,244.8378,218.7231,141.3624,0,U,58020,999,14712,0.0004902759099999999,0.00014127,0.0
CSC-2,2023-155F,2026-06-08T04:35:35.269152,15.21643595,0.00034881,97.5421,235.8356,261.0359,99.0481,0,U,58021,999,14681,0.00033088321,7.408000000000001e-05,0.0
CSC-1,2023-155G,2026-06-08T04:08:45.929184,15.10672,0.00063828,97.5365,228.786,270.6905,89.3593,0,U,58022,999,14637,0.00015475514,2.4980000000000005e-05,0.0
PRETTY,2023-155H,2026-06-08T04:31:59.320128,15.2381988,0.00031263,97.5684,240.7022,79.644,280.5149,0,U,58023,999,14698,0.00022149462999999998,5.263e-05,0.0
MACSAT (FINCH 1),2023-155J,2026-06-08T04:50:33.316800,15.20499115,0.00039837,97.5776,241.1441,98.3228,261.8459,0,U,58024,999,14696,0.00018638672999999998,4.002e-05,0.0
PVCC,2023-155K,2026-06-08T06:58:12.853056,15.15857451,0.00050822,97.57,235.8565,148.4248,211.729,0,U,58025,999,14663,0.00033815563999999997,6.404e-05,0.0
STARLINK-30514,2023-156A,2026-06-07T22:05:33.291744,15.30184218,0.00013979999999999998,53.1611,19.058,79.676,280.4399,0,U,58028,999,15013,-6.7406399e-05,-2.354e-05,0.0
STARLINK-30518,2023-156B,2026-06-07T22:19:14.012256,15.30187047,0.00013522,53.1591,19.1243,70.8536,289.2611,0,U,58029,999,15013,-0.00010197730000000001,-3.3770000000000004e-05,0.0
STARLINK-30549,2023-156C,2026-06-07T21:23:07.391328,15.30185738,9.466e-05,53.1612,19.4031,71.095,289.0153,0,U,58030,999,15007,-1.6000108e-05,-8.33e-06,0.0
STARLINK-30556,2023-156D,2026-06-07T22:42:42.120576,15.34378777,0.00013961,53.1605,28.1495,71.5628,288.5526,0,U,58031,999,14999,-5.921167800000001e-05,-2.375e-05,0.0
STARLINK-30561,2023-156E,2026-06-07T21:32:13.930944,15.30203182,0.00011059,53.1614,19.4422,79.5198,280.5928,0,U,58032,999,15012,-0.00015256446,-4.8750000000000006e-05,0.0
STARLINK-30562,2023-156F,2026-06-08T03:06:58.825728,15.30190506,0.00012619,53.1598,107.8104,88.1443,271.9702,0,U,58033,999,14888,-2.2749106000000002e-05,-1.033e-05,0.0
STARLINK-30565,2023-156G,2026-06-07T21:35:16.881216,15.30195744,0.0001344,53.1614,19.4611,64.6552,295.4588,0,U,58034,999,15012,-9.719475700000002e-05,-3.236e-05,0.0
STARLINK-30438,2023-156H,2026-06-07T21:57:56.923488,15.30180574,0.00016219,53.1603,19.0216,101.1374,258.981,0,U,58035,999,15008,-6.273918700000001e-05,-2.2160000000000005e-05,0.0
STARLINK-30437,2023-156J,2026-06-07T22:10:06.688992,15.3018594,0.00013083,53.1606,19.0699,105.4684,254.6461,0,U,58036,999,15008,-0.00010447645,-3.451000000000001e-05,0.0
STARLINK-30533,2023-156K,2026-06-08T02:59:17.199168,15.34417951,0.00013729,53.1604,107.7646,90.6128,269.5031,0,U,58037,999,14888,0.0012730543000000001,0.00042907,0.0
STARLINK-30560,2023-156L,2026-06-05T21:57:49.896576,15.30198547,8.821000000000001e-05,53.1602,25.73,70.1422,289.9674,0,U,58038,999,14981,3.8745566000000004e-05,7.889999999999999e-06,0.0
STARLINK-30555,2023-156N,2026-06-08T03:41:34.245312,15.34395521,0.00015494,53.1608,107.2583,97.5225,262.5953,0,U,58040,999,14889,-2.668367e-05,-1.2780000000000001e-05,0.0
STARLINK-30542,2023-156P,2026-06-07T21:51:56.010816,15.30172781,0.00012516,53.1618,19.1622,84.5421,275.5723,0,U,58041,999,15012,-6.740271700000001e-05,-2.353e-05,0.0
STARLINK-30563,2023-156Q,2026-06-07T18:41:27.361824,15.30179175,0.00018501,53.1633,17.299,86.0114,274.1098,0,U,58042,999,15014,-6.1308624e-05,-2.1740000000000002e-05,0.0
STARLINK-30564,2023-156R,2026-06-07T21:36:47.544192,15.30124596,0.00012774,53.1579,19.4649,100.8846,259.2299,0,U,58043,999,15012,-0.0019894109,-0.00058683,0.0
STARLINK-30547,2023-156S,2026-06-08T04:05:49.017408,15.34375936,0.00013094,53.1609,107.3177,76.2639,283.8509,0,U,58044,999,14889,-2.9455659999999997e-06,-4.759999999999999e-06,0.0
STARLINK-30550,2023-156T,2026-06-07T21:01:35.356224,15.30198711,0.00011698000000000001,53.1613,302.4434,90.9469,269.1666,0,U,58045,999,15118,-0.00014220531,-4.568e-05,0.0
