STARLINK-30525          
1 58012U 23153X   26158.63064309 -.00001971  00000+0 -62160-4 0  9991
2 58012  43.0055 278.9346 0001082 278.4722  81.6007 15.27565855148652
THEOS-2 (T2V)           
1 58016U 23155A   26159.19895319  .00000890  00000+0  11955-3 0  9994
2 58016  97.8877 230.3157 0001463  89.6687 270.4693 14.81725848144094
FORMOSAT-7R (TRITON)    
1 58017U 23155B   26159.18005197  .00001792  00000+0  18656-3 0  9998
2 58017  97.8353 240.6367 0002606 101.5376 258.6135 14.91091370144883
ANSER FOLLOWER 2        
1 58018U 23155C   26159.18427065  .00019659  00000+0  40161-3 0  9998
2 58018  97.5533 247.9206 0001301 166.0409 194.0876 15.46205080147566
ANSER FOLLOWER 1        
1 58019U 23155D   26159.24738252  .00043255  00000+0  88008-3 0  9990
2 58019  97.5533 248.6235 0001640 125.2248 234.9155 15.46160400147572
NESS                    
1 58020U 23155E   26159.24276683  .00014127  00000+0  49028-3 0  9992
2 58020  97.5905 244.8378 0005383 218.7231 141.3624 15.29888820147128
CSC-2                   
1 58021U 23155F   26159.19138043  .00007408  00000+0  33088-3 0  9997
2 58021  97.5421 235.8356 0003488 261.0359  99.0481 15.21643595146819
CSC-1                   
1 58022U 23155G   26159.17275381  .00002498  00000+0  15476-3 0  9998
2 58022  97.5365 228.7860 0006382 270.6905  89.3593 15.10672000146375
PRETTY                  
1 58023U 23155H   26159.18888102  .00005263  00000+0  22149-3 0  9999
2 58023  97.5684 240.7022 0003126  79.6440 280.5149 15.23819880146980
MACSAT (FINCH 1)        
1 58024U 23155J   26159.20177450  .00004002  00000+0  18639-3 0  9999
2 58024  97.5776 241.1441 0003983  98.3228 261.8459 15.20499115146962
PVCC                    
1 58025U 23155K   26159.29042654  .00006404  00000+0  33816-3 0  9998
2 58025  97.5700 235.8565 0005082 148.4248 211.7290 15.15857451146634
STARLINK-30514          
1 58028U 23156A   26158.92052421 -.00002354  00000+0 -67406-4 0  9999
2 58028  53.1611  19.0580 0001398  79.6760 280.4399 15.30184218150139
STARLINK-30518          
1 58029U 23156B   26158.93002329 -.00003377  00000+0 -10198-3 0  9994
2 58029  53.1591  19.1243 0001352  70.8536 289.2611 15.30187047150135
STARLINK-30549          
1 58030U 23156C   26158.89105777 -.00000833  00000+0 -16000-4 0  9995
2 58030  53.1612  19.4031 0000946  71.0950 289.0153 15.30185738150077
STARLINK-30556          
1 58031U 23156D   26158.94632084 -.00002375  00000+0 -59212-4 0  9993
2 58031  53.1605  28.1495 0001396  71.5628 288.5526 15.34378777149996
STARLINK-30561          
1 58032U 23156E   26158.89738346 -.00004875  00000+0 -15256-3 0  9992
2 58032  53.1614  19.4422 0001105  79.5198 280.5928 15.30203182150126
STARLINK-30562          
1 58033U 23156F   26159.12984752 -.00001033  00000+0 -22749-4 0  9993
2 58033  53.1598 107.8104 0001261  88.1443 271.9702 15.30190506148888
STARLINK-30565          
1 58034U 23156G   26158.89950094 -.00003236  00000+0 -97195-4 0  9993
2 58034  53.1614  19.4611 0001344  64.6552 295.4588 15.30195744150123
STARLINK-30438          
1 58035U 23156H   26158.91524217 -.00002216  00000+0 -62739-4 0  9994
2 58035  53.1603  19.0216 0001621 101.1374 258.9810 15.30180574150088
STARLINK-30437          
1 58036U 23156J   26158.92368853 -.00003451  00000+0 -10448-3 0  9999
2 58036  53.1606  19.0699 0001308 105.4684 254.6461 15.30185940150087
STARLINK-30533          
1 58037U 23156K   26159.12450462  .00042907  00000+0  12731-2 0  9994
2 58037  53.1604 107.7646 0001372  90.6128 269.5031 15.34417951148889
STARLINK-30560          
1 58038U 23156L   26156.91516084  .00000789  00000+0  38746-4 0  9990
2 58038  53.1602  25.7300 0000882  70.1422 289.9674 15.30198547149815
STARLINK-30555          
1 58040U 23156N   26159.15386858 -.00001278  00000+0 -26684-4 0  9990
2 58040  53.1608 107.2583 0001549  97.5225 262.5953 15.34395521148897
STARLINK-30542          
1 58041U 23156P   26158.91106494 -.00002353  00000+0 -67403-4 0  9999
2 58041  53.1618  19.1622 0001251  84.5421 275.5723 15.30172781150123
STARLINK-30563          
1 58042U 23156Q   26158.77878891 -.00002174  00000+0 -61309-4 0  9991
2 58042  53.1633  17.2990 0001850  86.0114 274.1098 15.30179175150145
STARLINK-30564          
1 58043U 23156R   26158.90055028 -.00058683  00000+0 -19894-2 0  9992
2 58043  53.1579  19.4649 0001277 100.8846 259.2299 15.30124596150122
STARLINK-30547          
1 58044U 23156S   26159.17070622 -.00000476  00000+0 -29456-5 0  9995
2 58044  53.1609 107.3177 0001309  76.2639 283.8509 15.34375936148890
STARLINK-30550          
1 58045U 23156T   26158.87610366 -.00004568  00000+0 -14221-3 0  9995
2 58045  53.1613 302.4434 0001169  90.9469 269.1666 15.30198711151185
